STARLINK-36936          
1 68012U 26039AC  26064.66667824 -.01448657  64451-3 -27588-2 0  9992
2 68012  42.9979  79.7586 0001772 277.3415 161.0232 15.99804020  2237
STARLINK-36967          
1 68013U 26039AD  26064.66667824 -.01460269  65031-3 -28669-2 0  9992
2 68013  42.9979  79.7761 0001783 273.4356 158.0561 15.99271424  2233
STARLINK-36985          
1 68014U 26039AE  26064.66667824 -.01447957  64297-3 -27794-2 0  9993
2 68014  42.9979  79.7633 0001784 275.9053 160.7263 15.99664817  2235
